STARLINK-36637          
1 67633U 26020S   26048.90025311  .00184977  00000+0  11126-2 0  9994
2 67633  42.9973 262.3696 0002013 289.3775  70.6877 15.76400722  2968
STARLINK-36617          
1 67634U 26020T   26048.93749532  .00238787  00000+0  11028-2 0  9996
2 67634  42.9978 261.7716 0001960 263.1080  96.9568 15.82068411  2970
STARLINK-36627          
1 67635U 26020U   26048.95704727  .00379458  00000+0  22253-2 0  9999
2 67635  42.9966 261.9306 0001777 275.3532  84.7135 15.76418041  2974
STARLINK-36624          
1 67636U 26020V   26048.93738103 -.00772588  00000+0 -48988-2 0  9999
2 67636  42.9972 261.7721 0002246 294.5708  65.4928 15.77646113  2971
STARLINK-36610          
1 67637U 26020W   26048.95923631  .00385039  00000+0  22548-2 0  9997
2 67637  42.9970 261.9484 0001662 267.0936  92.9744 15.76435465  2973
STARLINK-36599          
1 67638U 26020X   26048.04947015  .00251318  00000+0  11571-2 0  9996
2 67638  42.9969 267.1539 0002065 245.8602 114.2054 15.82100528  2836
STARLINK-36595          
1 67639U 26020Y   26048.04868222  .00315148  00000+0  14380-2 0  9992
2 67639  42.9963 267.1482 0002021 289.7349  70.3305 15.82125720  2837
STARLINK-36570          
1 67640U 26020Z   26048.63586041  .00458538  00000+0  26443-2 0  9999
2 67640  42.9967 263.8200 0002492 270.1840  89.8744 15.76579799  2920
STARLINK-36514          
1 67641U 26020AA  26047.98325419  .00104594  00000+0  49143-3 0  9990
2 67641  42.9960 267.5163 0001841 261.8111  98.2552 15.82095372  2825
STARLINK-36556          
1 67642U 26020AB  26048.91668981  .00006086  00000+0  40322-4 0  9997
2 67642  42.9980 261.9592 0001636 279.2694 298.5921 15.76374588  4215
STARLINK-36533          
1 67643U 26020AC  26048.95485382  .00470696  00000+0  26904-2 0  9994
2 67643  42.9964 261.9120 0003772 280.6242  79.4203 15.76745950  2978
STARLINK-36623          
1 67644U 26020AD  26048.94828827  .00386134  00000+0  22612-2 0  9994
2 67644  42.9971 261.8562 0001705 299.5909  60.4791 15.76432828  2978
